{
"type": "FeatureCollection",
"name": "cline_PS_20171017_separators",
"crs": { "type": "name", "properties": { "name": "urn:ogc:def:crs:EPSG::32615" } },
"features": [
{ "type": "Feature", "properties": { }, "geometry": { "type": "LineString", "coordinates": [ [ 326252.322756854409818, 3361614.6022579963319 ], [ 326343.62819282343844, 3361792.544151215348393 ] ] } },
{ "type": "Feature", "properties": { }, "geometry": { "type": "LineString", "coordinates": [ [ 326901.54490900260862, 3361482.639408411923796 ], [ 326905.621364151826128, 3361682.597860379610211 ] ] } },
{ "type": "Feature", "properties": { }, "geometry": { "type": "LineString", "coordinates": [ [ 327695.580360790889245, 3360517.877783183474094 ], [ 327885.593675807293039, 3360455.468327838461846 ] ] } },
{ "type": "Feature", "properties": { }, "geometry": { "type": "LineString", "coordinates": [ [ 327739.867819830426015, 3359511.91811055643484 ], [ 327920.296411751070991, 3359598.205555863212794 ] ] } },
{ "type": "Feature", "properties": { }, "geometry": { "type": "LineString", "coordinates": [ [ 327807.308709153265227, 3359190.957789375912398 ], [ 328004.391437404265162, 3359224.993039120454341 ] ] } },
{ "type": "Feature", "properties": { }, "geometry": { "type": "LineString", "coordinates": [ [ 328610.438476104522124, 3358734.557070977054536 ], [ 328537.853979387087747, 3358920.920937743969262 ] ] } },
{ "type": "Feature", "properties": { }, "geometry": { "type": "LineString", "coordinates": [ [ 328871.386837476398796, 3358289.710847156122327 ], [ 329059.453002672991715, 3358221.658532660454512 ] ] } },
{ "type": "Feature", "properties": { }, "geometry": { "type": "LineString", "coordinates": [ [ 328748.582022689748555, 3357967.050037966109812 ], [ 328939.574239767971449, 3357907.703824813477695 ] ] } },
{ "type": "Feature", "properties": { }, "geometry": { "type": "LineString", "coordinates": [ [ 327843.046100017323624, 3357862.372147105634212 ], [ 327714.607132827339228, 3357709.063857352361083 ] ] } },
{ "type": "Feature", "properties": { }, "geometry": { "type": "LineString", "coordinates": [ [ 327688.922017259930726, 3357153.154821241740137 ], [ 327739.637281447357964, 3357346.617897766176611 ] ] } },
{ "type": "Feature", "properties": { }, "geometry": { "type": "LineString", "coordinates": [ [ 327626.782735675689764, 3356174.147269382607192 ], [ 327462.367793824290857, 3356060.271341742482036 ] ] } },
{ "type": "Feature", "properties": { }, "geometry": { "type": "LineString", "coordinates": [ [ 327203.224873830040451, 3355612.466873242519796 ], [ 327318.324043972825166, 3355776.027813055552542 ] ] } },
{ "type": "Feature", "properties": { }, "geometry": { "type": "LineString", "coordinates": [ [ 327497.801248536561616, 3354864.671945275273174 ], [ 327697.525416736723855, 3354854.171629243995994 ] ] } },
{ "type": "Feature", "properties": { }, "geometry": { "type": "LineString", "coordinates": [ [ 327464.011800265347119, 3354572.844789767172188 ], [ 327663.24649814638542, 3354555.365225692745298 ] ] } },
{ "type": "Feature", "properties": { }, "geometry": { "type": "LineString", "coordinates": [ [ 327606.571731914475095, 3353673.06921200780198 ], [ 327766.828561043774243, 3353792.726007541175932 ] ] } },
{ "type": "Feature", "properties": { }, "geometry": { "type": "LineString", "coordinates": [ [ 326995.324673896306194, 3352796.645088795572519 ], [ 327030.551736075780354, 3352599.771895876154304 ] ] } },
{ "type": "Feature", "properties": { }, "geometry": { "type": "LineString", "coordinates": [ [ 326696.286995397065766, 3351104.968804957345128 ], [ 326786.872856709756888, 3351283.278091676533222 ] ] } },
{ "type": "Feature", "properties": { }, "geometry": { "type": "LineString", "coordinates": [ [ 326882.384871916845441, 3350494.186698246747255 ], [ 327056.154121777508408, 3350395.170296560972929 ] ] } },
{ "type": "Feature", "properties": { }, "geometry": { "type": "LineString", "coordinates": [ [ 327819.004225401964504, 3349984.416361327283084 ], [ 327710.831507810100447, 3350152.638426374644041 ] ] } },
{ "type": "Feature", "properties": { }, "geometry": { "type": "LineString", "coordinates": [ [ 328023.831436716835015, 3349557.749520058743656 ], [ 328133.373540956177749, 3349390.415938854217529 ] ] } },
{ "type": "Feature", "properties": { }, "geometry": { "type": "LineString", "coordinates": [ [ 327655.202430296281818, 3348322.908163384068757 ], [ 327842.284003177133854, 3348393.622271512169391 ] ] } },
{ "type": "Feature", "properties": { }, "geometry": { "type": "LineString", "coordinates": [ [ 327184.742137793044094, 3347742.372190938331187 ], [ 327176.308962566254195, 3347542.55006614793092 ] ] } },
{ "type": "Feature", "properties": { }, "geometry": { "type": "LineString", "coordinates": [ [ 326463.562008250912186, 3346928.242216983344406 ], [ 326663.404631217068527, 3346936.17481088405475 ] ] } },
{ "type": "Feature", "properties": { }, "geometry": { "type": "LineString", "coordinates": [ [ 326115.44962243642658, 3346483.316959849093109 ], [ 326191.120702375774272, 3346298.184878185857087 ] ] } },
{ "type": "Feature", "properties": { }, "geometry": { "type": "LineString", "coordinates": [ [ 325924.775908196868841, 3345705.21083672856912 ], [ 326099.060172717261594, 3345803.317896314430982 ] ] } },
{ "type": "Feature", "properties": { }, "geometry": { "type": "LineString", "coordinates": [ [ 325741.283588318852708, 3345233.386601726524532 ], [ 325556.261458470486104, 3345157.447076666168869 ] ] } },
{ "type": "Feature", "properties": { }, "geometry": { "type": "LineString", "coordinates": [ [ 324657.146173196204472, 3344618.550366892945021 ], [ 324856.761827371374238, 3344606.157199089881033 ] ] } },
{ "type": "Feature", "properties": { }, "geometry": { "type": "LineString", "coordinates": [ [ 324386.075664580625016, 3344014.556183410808444 ], [ 324536.16864204016747, 3343882.374119130894542 ] ] } },
{ "type": "Feature", "properties": { }, "geometry": { "type": "LineString", "coordinates": [ [ 323920.519257068983279, 3343274.450047655962408 ], [ 324101.564976352616213, 3343189.4650635169819 ] ] } },
{ "type": "Feature", "properties": { }, "geometry": { "type": "LineString", "coordinates": [ [ 323730.776698423956987, 3342132.166949189733714 ], [ 323918.758961973304395, 3342200.450685107614845 ] ] } },
{ "type": "Feature", "properties": { }, "geometry": { "type": "LineString", "coordinates": [ [ 323171.651268052693922, 3341839.761606664862484 ], [ 323073.71992599760415, 3341665.378544862847775 ] ] } },
{ "type": "Feature", "properties": { }, "geometry": { "type": "LineString", "coordinates": [ [ 322290.069601251569111, 3341735.768075522966683 ], [ 322385.707056244311389, 3341560.116496530361474 ] ] } },
{ "type": "Feature", "properties": { }, "geometry": { "type": "LineString", "coordinates": [ [ 322725.919158715580124, 3340691.736480534542352 ], [ 322638.874582327844109, 3340871.801029297988862 ] ] } },
{ "type": "Feature", "properties": { }, "geometry": { "type": "LineString", "coordinates": [ [ 323296.490262089704629, 3340433.613367140758783 ], [ 323458.413688033993822, 3340551.005036906804889 ] ] } },
{ "type": "Feature", "properties": { }, "geometry": { "type": "LineString", "coordinates": [ [ 323456.120800103351939, 3340221.374063885305077 ], [ 323623.849123949592467, 3340330.310785791371018 ] ] } },
{ "type": "Feature", "properties": { }, "geometry": { "type": "LineString", "coordinates": [ [ 323747.038045457040425, 3339415.868829296901822 ], [ 323946.913740977703128, 3339408.818556950427592 ] ] } },
{ "type": "Feature", "properties": { }, "geometry": { "type": "LineString", "coordinates": [ [ 325280.151789494440891, 3338550.202904062811285 ], [ 325181.311142718652263, 3338724.072184112388641 ] ] } },
{ "type": "Feature", "properties": { }, "geometry": { "type": "LineString", "coordinates": [ [ 325562.906428886810318, 3337805.51160650793463 ], [ 325752.06901865277905, 3337740.56921178009361 ] ] } },
{ "type": "Feature", "properties": { }, "geometry": { "type": "LineString", "coordinates": [ [ 325614.345534870284609, 3336646.070078989490867 ], [ 325763.980284445919096, 3336778.770650651305914 ] ] } },
{ "type": "Feature", "properties": { }, "geometry": { "type": "LineString", "coordinates": [ [ 324909.050754308176693, 3335366.409286692738533 ], [ 324911.173545047116932, 3335166.420552611351013 ] ] } },
{ "type": "Feature", "properties": { }, "geometry": { "type": "LineString", "coordinates": [ [ 325279.204792661243118, 3334657.614548784680665 ], [ 325165.781046719406731, 3334822.341759216040373 ] ] } },
{ "type": "Feature", "properties": { }, "geometry": { "type": "LineString", "coordinates": [ [ 324691.834173187613487, 3334522.559894011821598 ], [ 324586.567053777980618, 3334352.504510176833719 ] ] } },
{ "type": "Feature", "properties": { }, "geometry": { "type": "LineString", "coordinates": [ [ 324089.493493017507717, 3333902.146401647478342 ], [ 324201.806198503240012, 3334067.633126754313707 ] ] } },
{ "type": "Feature", "properties": { }, "geometry": { "type": "LineString", "coordinates": [ [ 324287.518839133088477, 3333716.605523800011724 ], [ 324433.580115059157833, 3333853.229473658371717 ] ] } },
{ "type": "Feature", "properties": { }, "geometry": { "type": "LineString", "coordinates": [ [ 324785.96651798352832, 3333503.91700908029452 ], [ 324785.678107976040337, 3333703.916801129002124 ] ] } },
{ "type": "Feature", "properties": { }, "geometry": { "type": "LineString", "coordinates": [ [ 324903.268667375203222, 3333231.550635564140975 ], [ 325084.941311683505774, 3333147.914218196645379 ] ] } },
{ "type": "Feature", "properties": { }, "geometry": { "type": "LineString", "coordinates": [ [ 325134.624062351475004, 3332609.6812983462587 ], [ 325243.777542852272745, 3332777.268641825765371 ] ] } },
{ "type": "Feature", "properties": { }, "geometry": { "type": "LineString", "coordinates": [ [ 325211.723503780900501, 3332082.307631009723991 ], [ 325398.622108415234834, 3332011.111341881100088 ] ] } },
{ "type": "Feature", "properties": { }, "geometry": { "type": "LineString", "coordinates": [ [ 325168.842953069659416, 3331549.510076710954309 ], [ 325362.83501044876175, 3331598.16274029482156 ] ] } },
{ "type": "Feature", "properties": { }, "geometry": { "type": "LineString", "coordinates": [ [ 324817.544853768951725, 3331363.158854066859931 ], [ 324778.258890274970327, 3331167.055276658851653 ] ] } },
{ "type": "Feature", "properties": { }, "geometry": { "type": "LineString", "coordinates": [ [ 324415.156077477207873, 3330740.338636578060687 ], [ 324610.404163361701649, 3330783.676667895168066 ] ] } },
{ "type": "Feature", "properties": { }, "geometry": { "type": "LineString", "coordinates": [ [ 324361.129890255688224, 3330222.029386093840003 ], [ 324531.008830441685859, 3330116.47776042483747 ] ] } },
{ "type": "Feature", "properties": { }, "geometry": { "type": "LineString", "coordinates": [ [ 324411.964431647909805, 3329560.762245047837496 ], [ 324588.148567761760205, 3329655.415032549761236 ] ] } },
{ "type": "Feature", "properties": { }, "geometry": { "type": "LineString", "coordinates": [ [ 324356.480838953808416, 3328506.583089553751051 ], [ 324464.451829818135593, 3328338.231477943249047 ] ] } },
{ "type": "Feature", "properties": { }, "geometry": { "type": "LineString", "coordinates": [ [ 324124.797380860720295, 3328328.722085506655276 ], [ 324268.350587800203357, 3328189.465212148614228 ] ] } },
{ "type": "Feature", "properties": { }, "geometry": { "type": "LineString", "coordinates": [ [ 324234.053737735492177, 3327353.732073891442269 ], [ 324276.731745462864637, 3327549.125491530168802 ] ] } },
{ "type": "Feature", "properties": { }, "geometry": { "type": "LineString", "coordinates": [ [ 324441.829877320327796, 3327057.230848013889045 ], [ 324638.9947750804713, 3327023.674878482241184 ] ] } },
{ "type": "Feature", "properties": { }, "geometry": { "type": "LineString", "coordinates": [ [ 324615.7355573088862, 3326666.247159155085683 ], [ 324668.481830844655633, 3326859.166392587125301 ] ] } },
{ "type": "Feature", "properties": { }, "geometry": { "type": "LineString", "coordinates": [ [ 324250.320302498119418, 3326234.248049791436642 ], [ 324254.987515429442283, 3326034.302514398936182 ] ] } },
{ "type": "Feature", "properties": { }, "geometry": { "type": "LineString", "coordinates": [ [ 323579.46793836064171, 3325861.120768520515412 ], [ 323690.950267415144481, 3325695.073515280615538 ] ] } },
{ "type": "Feature", "properties": { }, "geometry": { "type": "LineString", "coordinates": [ [ 323726.820511770609301, 3324864.094582196790725 ], [ 323789.923314960382413, 3325053.878765493165702 ] ] } },
{ "type": "Feature", "properties": { }, "geometry": { "type": "LineString", "coordinates": [ [ 323911.118238071037922, 3323634.192972924560308 ], [ 324042.862442108395044, 3323483.71551712974906 ] ] } },
{ "type": "Feature", "properties": { }, "geometry": { "type": "LineString", "coordinates": [ [ 324041.768773572344799, 3322576.183613047469407 ], [ 324171.78622471174458, 3322728.155526238959283 ] ] } },
{ "type": "Feature", "properties": { }, "geometry": { "type": "LineString", "coordinates": [ [ 324215.585805288457777, 3322066.558265723288059 ], [ 324387.063636926992331, 3321963.62453336827457 ] ] } },
{ "type": "Feature", "properties": { }, "geometry": { "type": "LineString", "coordinates": [ [ 324407.820062181679532, 3321466.118292526341975 ], [ 324551.249474029173143, 3321605.502666891552508 ] ] } },
{ "type": "Feature", "properties": { }, "geometry": { "type": "LineString", "coordinates": [ [ 324336.709129371040035, 3320938.184698921628296 ], [ 324410.62527115578996, 3320752.344972318969667 ] ] } },
{ "type": "Feature", "properties": { }, "geometry": { "type": "LineString", "coordinates": [ [ 324755.859380893234629, 3320386.980956302024424 ], [ 324693.034464753174689, 3320576.857310575433075 ] ] } },
{ "type": "Feature", "properties": { }, "geometry": { "type": "LineString", "coordinates": [ [ 325026.1786643708474, 3320539.486776807811111 ], [ 324909.166472298151348, 3320701.68464025342837 ] ] } },
{ "type": "Feature", "properties": { }, "geometry": { "type": "LineString", "coordinates": [ [ 325203.066283468331676, 3320063.939288644120097 ], [ 325369.551969031163026, 3319953.112773302942514 ] ] } },
{ "type": "Feature", "properties": { }, "geometry": { "type": "LineString", "coordinates": [ [ 325005.507601168879773, 3319775.111685818061233 ], [ 325179.883792324864771, 3319677.168110439553857 ] ] } },
{ "type": "Feature", "properties": { }, "geometry": { "type": "LineString", "coordinates": [ [ 324790.919418567384128, 3319484.049323051702231 ], [ 324914.960129150480498, 3319327.161139564123005 ] ] } },
{ "type": "Feature", "properties": { }, "geometry": { "type": "LineString", "coordinates": [ [ 324872.759721407841425, 3318784.980040079914033 ], [ 324999.619238663057331, 3318939.597836215049028 ] ] } },
{ "type": "Feature", "properties": { }, "geometry": { "type": "LineString", "coordinates": [ [ 325151.243885687144939, 3318236.315552919637412 ], [ 325274.663324090011884, 3318078.938165013212711 ] ] } },
{ "type": "Feature", "properties": { }, "geometry": { "type": "LineString", "coordinates": [ [ 325048.934244138537906, 3317622.003480794839561 ], [ 325225.520982730668038, 3317715.903021547012031 ] ] } },
{ "type": "Feature", "properties": { }, "geometry": { "type": "LineString", "coordinates": [ [ 324989.303032129711937, 3317208.990393040236086 ], [ 325127.782655381655786, 3317064.687260904815048 ] ] } },
{ "type": "Feature", "properties": { }, "geometry": { "type": "LineString", "coordinates": [ [ 325284.118820122850593, 3316634.8860421651043 ], [ 325313.196322736388538, 3316832.760999756399542 ] ] } },
{ "type": "Feature", "properties": { }, "geometry": { "type": "LineString", "coordinates": [ [ 325619.495117225451395, 3316306.178613511379808 ], [ 325479.760701682767831, 3316163.090203383471817 ] ] } },
{ "type": "Feature", "properties": { }, "geometry": { "type": "LineString", "coordinates": [ [ 325523.695779153320473, 3315480.364287818782032 ], [ 325695.459124721761327, 3315582.820879207924008 ] ] } },
{ "type": "Feature", "properties": { }, "geometry": { "type": "LineString", "coordinates": [ [ 325408.363654265645891, 3315119.065235605463386 ], [ 325216.293457854771987, 3315063.306472610682249 ] ] } },
{ "type": "Feature", "properties": { }, "geometry": { "type": "LineString", "coordinates": [ [ 324933.376469097100198, 3314946.722516731359065 ], [ 325130.954260479309596, 3314915.690011957660317 ] ] } },
{ "type": "Feature", "properties": { }, "geometry": { "type": "LineString", "coordinates": [ [ 325015.525652124197222, 3314234.600186881609261 ], [ 325187.612801716080867, 3314336.511976903304458 ] ] } },
{ "type": "Feature", "properties": { }, "geometry": { "type": "LineString", "coordinates": [ [ 325096.147228702378925, 3313908.650557080283761 ], [ 325295.774094997148495, 3313896.439322362653911 ] ] } },
{ "type": "Feature", "properties": { }, "geometry": { "type": "LineString", "coordinates": [ [ 325879.494165529264137, 3314336.642556569073349 ], [ 325691.309718015254475, 3314268.918013648595661 ] ] } },
{ "type": "Feature", "properties": { }, "geometry": { "type": "LineString", "coordinates": [ [ 326113.574657400138676, 3314363.70792071800679 ], [ 326259.063358507002704, 3314500.941436486318707 ] ] } },
{ "type": "Feature", "properties": { }, "geometry": { "type": "LineString", "coordinates": [ [ 326701.193531239172444, 3314106.023215424269438 ], [ 326670.157878358499147, 3314303.600512323901057 ] ] } },
{ "type": "Feature", "properties": { }, "geometry": { "type": "LineString", "coordinates": [ [ 326798.205950841889717, 3314056.022704639472067 ], [ 326945.896729064406827, 3313921.161909639835358 ] ] } },
{ "type": "Feature", "properties": { }, "geometry": { "type": "LineString", "coordinates": [ [ 327231.635994706652127, 3313883.262310449499637 ], [ 327038.976567035540938, 3313936.949785054195672 ] ] } },
{ "type": "Feature", "properties": { }, "geometry": { "type": "LineString", "coordinates": [ [ 327292.222584384260699, 3313844.676888878922909 ], [ 327490.527142782812007, 3313870.663464612793177 ] ] } },
{ "type": "Feature", "properties": { }, "geometry": { "type": "LineString", "coordinates": [ [ 327750.192499055876397, 3313423.00622881250456 ], [ 327713.274792529409751, 3313619.569406810682267 ] ] } },
{ "type": "Feature", "properties": { }, "geometry": { "type": "LineString", "coordinates": [ [ 327864.334393473516684, 3313288.795211076270789 ], [ 328064.07048872084124, 3313299.066153357271105 ] ] } },
{ "type": "Feature", "properties": { }, "geometry": { "type": "LineString", "coordinates": [ [ 328680.464160941017326, 3313207.946217265445739 ], [ 328508.339611622330267, 3313309.794828065205365 ] ] } },
{ "type": "Feature", "properties": { }, "geometry": { "type": "LineString", "coordinates": [ [ 328871.50169491925044, 3312856.443172857165337 ], [ 329069.380626636382658, 3312827.392727378755808 ] ] } },
{ "type": "Feature", "properties": { }, "geometry": { "type": "LineString", "coordinates": [ [ 329409.126609783328604, 3312737.092661954462528 ], [ 329232.053551461256575, 3312830.071864018216729 ] ] } },
{ "type": "Feature", "properties": { }, "geometry": { "type": "LineString", "coordinates": [ [ 329592.679491394024808, 3312286.78878893982619 ], [ 329740.170330206805374, 3312151.70935872849077 ] ] } },
{ "type": "Feature", "properties": { }, "geometry": { "type": "LineString", "coordinates": [ [ 329353.792712479422335, 3311829.011298996862024 ], [ 329500.461654777231161, 3311693.039899926166981 ] ] } }
]
}
